NORAD_CAT_ID,OBJECT_NAME,OBJECT_TYPE,EPOCH,MEAN_MOTION,ECCENTRICITY,INCLINATION,RA_OF_ASC_NODE,ARG_OF_PERICENTER,MEAN_ANOMALY,BSTAR,MEAN_MOTION_DOT,MEAN_MOTION_DDOT,TLE_LINE0,TLE_LINE1,TLE_LINE2,SEMIMAJOR_AXIS,PERIOD,APOGEE,PERIGEE,DECAYED
50186.0,STARLINK-3274,PAYLOAD,2023-02-27 01:55:50,15.08842166,5.2e-05,53.2143,186.8834,62.2304,297.8741,0.00014603,2.037e-05,0.0,0 STARLINK-3274,1 50186U 21125AG  23058.08044492  .00002037  00000-0  14603-3 0  9999,2 50186  53.2143 186.8834 0000520  62.2304 297.8741 15.08842166 68915,6917.874,95.437,540.098,539.379,0.0
50186.0,STARLINK-3274,PAYLOAD,2023-02-27 17:49:41,15.08928081,0.0001055,53.2139,183.9106,50.9432,309.1654,0.0064944,0.00104865,0.0,0 STARLINK-3274,1 50186U 21125AG  23058.74283631  .00104865  00000-0  64944-2 0  9996,2 50186  53.2139 183.9106 0001055  50.9432 309.1654 15.08928081 69013,6917.611,95.432,540.206,538.746,0.0
50186.0,STARLINK-3274,PAYLOAD,2023-02-27 19:25:04,15.08894147,0.0001276,53.2138,183.6125,61.588,298.5241,0.0036955,0.00059107,0.0,0 STARLINK-3274,1 50186U 21125AG  23058.80907822  .00059107  00000-0  36955-2 0  9997,2 50186  53.2138 183.6125 0001276  61.5880 298.5241 15.08894147 69502,6917.715,95.434,540.463,538.697,0.0
50186.0,STARLINK-3274,PAYLOAD,2023-02-28 01:46:36,15.08859746,8.23e-05,53.2143,182.4228,72.723,287.3852,0.00091359,0.0001429,0.0,0 STARLINK-3274,1 50186U 21125AG  23059.07403907  .00014290  00000-0  91359-3 0  9996,2 50186  53.2143 182.4228 0000823  72.7230 287.3852 15.08859746 69060,6917.82,95.436,540.254,539.116,0.0
50186.0,STARLINK-3274,PAYLOAD,2023-02-28 12:54:19,15.0883826,0.000123,53.2143,180.3391,113.074,247.0382,0.00095992,0.00015021,0.0,0 STARLINK-3274,1 50186U 21125AG  23059.53772349  .00015021  00000-0  95992-3 0  9996,2 50186  53.2143 180.3391 0001230 113.0740 247.0382 15.08838260 69616,6917.886,95.438,540.602,538.9,0.0
50186.0,STARLINK-3274,PAYLOAD,2023-02-28 14:29:42,15.08842589,0.0001238,53.2163,180.0412,108.2885,251.8242,0.0012842,0.00020211,0.0,0 STARLINK-3274,1 50186U 21125AG  23059.60396379  .00020211  00000-0  12842-2 0  9998,2 50186  53.2163 180.0412 0001238 108.2885 251.8242 15.08842589 69148,6917.872,95.437,540.594,538.881,0.0
50186.0,STARLINK-3274,PAYLOAD,2023-02-28 19:15:51,15.08850464,0.0001402,53.2144,179.1489,109.0013,251.1131,0.0013138,0.00020689,0.0,0 STARLINK-3274,1 50186U 21125AG  23059.80268231  .00020689  00000-0  13138-2 0  9993,2 50186  53.2144 179.1489 0001402 109.0013 251.1131 15.08850464 69652,6917.848,95.437,540.683,538.744,0.0
50186.0,STARLINK-3274,PAYLOAD,2023-03-01 11:09:44,15.08827339,0.0001226,53.2154,176.1765,92.8494,267.2639,0.0014639,0.00023079,0.0,0 STARLINK-3274,1 50186U 21125AG  23060.46509786  .00023079  00000-0  14639-2 0  9993,2 50186  53.2154 176.1765 0001226  92.8494 267.2639 15.08827339 69277,6917.919,95.438,540.632,538.936,0.0
50186.0,STARLINK-3274,PAYLOAD,2023-03-01 19:06:40,15.08842539,0.0001182,53.2164,174.6898,92.4172,267.6956,0.0020885,0.00033109,0.0,0 STARLINK-3274,1 50186U 21125AG  23060.79630056  .00033109  00000-0  20885-2 0  9999,2 50186  53.2164 174.6898 0001182  92.4172 267.6956 15.08842539 69802,6917.873,95.437,540.555,538.92,0.0
50186.0,STARLINK-3274,PAYLOAD,2023-03-02 18:57:26,15.08887104,0.0001578,53.2163,170.2291,86.9723,273.145,0.0024826,0.00039495,0.0,0 STARLINK-3274,1 50186U 21125AG  23061.78989520  .00039495  00000-0  24826-2 0  9995,2 50186  53.2163 170.2291 0001578  86.9723 273.1450 15.08887104 69953,6917.736,95.435,540.693,538.51,0.0
50186.0,STARLINK-3274,PAYLOAD,2023-03-03 09:15:54,15.08853191,0.0002125,53.2162,167.5505,146.5889,213.5238,0.0013656,0.0002152,0.0,0 STARLINK-3274,1 50186U 21125AG  23062.38605175  .00021520  00000-0  13656-2 0  9992,2 50186  53.2162 167.5505 0002125 146.5889 213.5238 15.08853191 69562,6917.84,95.437,541.175,538.235,0.0
50186.0,STARLINK-3274,PAYLOAD,2023-03-03 10:51:18,15.08870647,0.0001678,53.2152,167.2561,114.7368,245.3798,0.0019919,0.00031582,0.0,0 STARLINK-3274,1 50186U 21125AG  23062.45229187  .00031582  00000-0  19919-2 0  9992,2 50186  53.2152 167.2561 0001678 114.7368 245.3798 15.08870647 70056,6917.787,95.436,540.813,538.491,0.0
50186.0,STARLINK-3274,PAYLOAD,2023-03-03 17:12:50,15.08890725,0.0001399,53.2154,166.068,103.5699,256.5449,0.0028013,0.00044639,0.0,0 STARLINK-3274,1 50186U 21125AG  23062.71724579  .00044639  00000-0  28013-2 0  9998,2 50186  53.2154 166.0680 0001399 103.5699 256.5449 15.08890725 69616,6917.725,95.434,540.558,538.623,0.0
50186.0,STARLINK-3274,PAYLOAD,2023-03-03 23:34:23,15.08858612,0.0002288,53.2171,164.8732,78.182,281.9429,0.00085017,0.00013275,0.0,0 STARLINK-3274,1 50186U 21125AG  23062.98221150  .00013275  00000-0  85017-3 0  9994,2 50186  53.2171 164.8732 0002288  78.1820 281.9429 15.08858612 69653,6917.824,95.436,541.271,538.106,0.0
50186.0,STARLINK-3274,PAYLOAD,2023-03-04 10:42:05,15.08837215,8.88e-05,53.2157,162.7964,91.5313,268.5781,0.0011984,0.00018835,0.0,0 STARLINK-3274,1 50186U 21125AG  23063.44589255  .00018835  00000-0  11984-2 0  9997,2 50186  53.2157 162.7964 0000888  91.5313 268.5781 15.08837215 70202,6917.889,95.438,540.368,539.14,0.0
50186.0,STARLINK-3274,PAYLOAD,2023-03-04 15:28:14,15.08854023,0.0001273,53.2156,161.9047,81.4698,278.6438,0.0026395,0.00041986,0.0,0 STARLINK-3274,1 50186U 21125AG  23063.64461385  .00041986  00000-0  26395-2 0  9997,2 50186  53.2156 161.9047 0001273  81.4698 278.6438 15.08854023 69752,6917.838,95.437,540.583,538.822,0.0
50186.0,STARLINK-3274,PAYLOAD,2023-03-04 18:39:00,15.08869142,0.0001129,53.2151,161.3101,80.2746,279.8373,0.0032935,0.00052561,0.0,0 STARLINK-3274,1 50186U 21125AG  23063.77709186  .00052561  00000-0  32935-2 0  9993,2 50186  53.2151 161.3101 0001129  80.2746 279.8373 15.08869142 70259,6917.791,95.436,540.437,538.875,0.0
50186.0,STARLINK-3274,PAYLOAD,2023-03-05 20:05:11,15.08872246,3.59e-05,53.2151,156.5538,76.1146,283.9886,0.0029325,0.00046734,0.0,0 STARLINK-3274,1 50186U 21125AG  23064.83693793  .00046734  00000-0  29325-2 0  9991,2 50186  53.2151 156.5538 0000359  76.1146 283.9886 15.08872246 69938,6917.782,95.436,539.895,539.398,0.0
50186.0,STARLINK-3274,PAYLOAD,2023-03-06 05:37:30,15.08847932,9.91e-05,53.2148,154.7705,104.4153,255.695,0.0021535,0.00034159,0.0,0 STARLINK-3274,1 50186U 21125AG  23065.23437677  .00034159  00000-0  21535-2 0  9996,2 50186  53.2148 154.7705 0000991 104.4153 255.6950 15.08847932 69993,6917.856,95.437,540.407,539.036,0.0
50186.0,STARLINK-3274,PAYLOAD,2023-03-06 15:09:48,15.08892915,0.0001123,53.2142,152.9849,116.8883,243.2224,0.0030515,0.00048683,0.0,0 STARLINK-3274,1 50186U 21125AG  23065.63180628  .00048683  00000-0  30515-2 0  9996,2 50186  53.2142 152.9849 0001123 116.8883 243.2224 15.08892915 70058,6917.719,95.434,540.361,538.807,0.0
50186.0,STARLINK-3274,PAYLOAD,2023-03-06 23:06:44,15.08839935,0.0001661,53.2147,151.498,84.0324,276.0857,0.0023231,0.00036878,0.0,0 STARLINK-3274,1 50186U 21125AG  23065.96301127  .00036878  00000-0  23231-2 0  9991,2 50186  53.2147 151.4980 0001661  84.0324 276.0857 15.08839935 70101,6917.881,95.438,540.895,538.597,0.0
50186.0,STARLINK-3274,PAYLOAD,2023-03-07 16:35:58,15.08873868,0.0001277,53.2142,148.2261,91.8979,268.216,0.0037622,0.00060155,0.0,0 STARLINK-3274,1 50186U 21125AG  23066.69165256  .00060155  00000-0  37622-2 0  9997,2 50186  53.2142 148.2261 0001277  91.8979 268.2160 15.08873868 70212,6917.777,95.435,540.525,538.758,0.0
50186.0,STARLINK-3274,PAYLOAD,2023-03-07 22:57:31,15.0883445,0.0001132,53.215,147.0381,105.1972,254.9146,0.00271,0.00043099,0.0,0 STARLINK-3274,1 50186U 21125AG  23066.95661549  .00043099  00000-0  27100-2 0  9990,2 50186  53.2150 147.0381 0001132 105.1972 254.9146 15.08834450 70257,6917.897,95.438,540.545,538.979,0.0
50186.0,STARLINK-3274,PAYLOAD,2023-03-08 10:05:13,15.08853994,0.0001511,53.2147,144.9542,123.5795,236.5342,0.0022669,0.00035988,0.0,0 STARLINK-3274,1 50186U 21125AG  23067.42029685  .00035988  00000-0  22669-2 0  9995,2 50186  53.2147 144.9542 0001511 123.5795 236.5342 15.08853994 70322,6917.838,95.437,540.748,538.657,0.0
50186.0,STARLINK-3274,PAYLOAD,2023-03-09 14:42:09,15.08890737,0.0001303,53.2153,139.6018,103.7672,256.3465,0.0022961,0.00036495,0.0,0 STARLINK-3274,1 50186U 21125AG  23068.61260874  .00036495  00000-0  22961-2 0  9993,2 50186  53.2153 139.6018 0001303 103.7672 256.3465 15.08890737 70503,6917.725,95.434,540.492,538.689,0.0
50186.0,STARLINK-3274,PAYLOAD,2023-03-10 11:22:10,15.08862429,0.0001274,53.2155,135.7378,112.2253,247.8875,0.0022399,0.00035562,0.0,0 STARLINK-3274,1 50186U 21125AG  23069.47373149  .00035562  00000-0  22399-2 0  9997,2 50186  53.2155 135.7378 0001274 112.2253 247.8875 15.08862429 70639,6917.812,95.436,540.558,538.796,0.0
50186.0,STARLINK-3274,PAYLOAD,2023-03-10 20:54:29,15.08823258,0.0001254,53.2148,133.952,79.297,280.8163,0.0020826,0.00032997,0.0,0 STARLINK-3274,1 50186U 21125AG  23069.87117250  .00032997  00000-0  20826-2 0  9992,2 50186  53.2148 133.9520 0001254  79.2970 280.8163 15.08823258 71170,6917.932,95.439,540.664,538.929,0.0
50186.0,STARLINK-3274,PAYLOAD,2023-03-11 08:02:12,15.08815594,0.000115,53.2146,131.8692,73.6961,286.4157,0.00046501,7.116e-05,0.0,0 STARLINK-3274,1 50186U 21125AG  23070.33486340  .00007116  00000-0  46501-3 0  9998,2 50186  53.2146 131.8692 0001150  73.6961 286.4157 15.08815594 70761,6917.955,95.439,540.616,539.024,0.0
50186.0,STARLINK-3274,PAYLOAD,2023-03-11 09:37:35,15.08815671,0.0001233,53.2146,131.5725,72.3116,287.801,0.00097578,0.00015265,0.0,0 STARLINK-3274,1 50186U 21125AG  23070.40110600  .00015265  00000-0  97578-3 0  9993,2 50186  53.2146 131.5725 0001233  72.3116 287.8010 15.08815671 71259,6917.955,95.439,540.673,538.967,0.0
50186.0,STARLINK-3274,PAYLOAD,2023-03-11 14:23:45,15.08832476,0.0001296,53.2144,130.6811,72.0036,288.1098,0.0021652,0.00034332,0.0,0 STARLINK-3274,1 50186U 21125AG  23070.59982730  .00034332  00000-0  21652-2 0  9999,2 50186  53.2144 130.6811 0001296  72.0036 288.1098 15.08832476 70802,6917.903,95.438,540.665,538.872,0.0
